NODE_0_0
1 00000U 23666A   24025.90373177  .00000000  00000-0 00000000 0 00005
2 00000  90.0000 000.0000 0000011   0.0000   0.0000 20.00000000000005
NODE_0_1
1 00000U 23666A   24025.90373177  .00000000  00000-0 00000000 0 00005
2 00000  90.0000 000.0000 0000011   0.0000  36.0000 20.00000000000004
NODE_0_2
1 00000U 23666A   24025.90373177  .00000000  00000-0 00000000 0 00005
2 00000  90.0000 000.0000 0000011   0.0000  72.0000 20.00000000000004
NODE_0_3
1 00000U 23666A   24025.90373177  .00000000  00000-0 00000000 0 00005
2 00000  90.0000 000.0000 0000011   0.0000 108.0000 20.00000000000004
NODE_0_4
1 00000U 23666A   24025.90373177  .00000000  00000-0 00000000 0 00005
2 00000  90.0000 000.0000 0000011   0.0000 144.0000 20.00000000000004
NODE_0_5
1 00000U 23666A   24025.90373177  .00000000  00000-0 00000000 0 00005
2 00000  90.0000 000.0000 0000011   0.0000 180.0000 20.00000000000004
NODE_0_6
1 00000U 23666A   24025.90373177  .00000000  00000-0 00000000 0 00005
2 00000  90.0000 000.0000 0000011   0.0000 216.0000 20.00000000000004
NODE_0_7
1 00000U 23666A   24025.90373177  .00000000  00000-0 00000000 0 00005
2 00000  90.0000 000.0000 0000011   0.0000 252.0000 20.00000000000004
NODE_0_8
1 00000U 23666A   24025.90373177  .00000000  00000-0 00000000 0 00005
2 00000  90.0000 000.0000 0000011   0.0000 288.0000 20.00000000000003
NODE_0_9
1 00000U 23666A   24025.90373177  .00000000  00000-0 00000000 0 00005
2 00000  90.0000 000.0000 0000011   0.0000 324.0000 20.00000000000004
NODE_1_0
1 00000U 23666A   24025.90373177  .00000000  00000-0 00000000 0 00005
2 00000  90.0000 018.0000 0000011   0.0000   5.0000 20.00000000000009
NODE_1_1
1 00000U 23666A   24025.90373177  .00000000  00000-0 00000000 0 00005
2 00000  90.0000 018.0000 0000011   0.0000  41.0000 20.00000000000009
NODE_1_2
1 00000U 23666A   24025.90373177  .00000000  00000-0 00000000 0 00005
2 00000  90.0000 018.0000 0000011   0.0000  77.0000 20.00000000000008
NODE_1_3
1 00000U 23666A   24025.90373177  .00000000  00000-0 00000000 0 00005
2 00000  90.0000 018.0000 0000011   0.0000 113.0000 20.00000000000009
NODE_1_4
1 00000U 23666A   24025.90373177  .00000000  00000-0 00000000 0 00005
2 00000  90.0000 018.0000 0000011   0.0000 149.0000 20.00000000000008
NODE_1_5
1 00000U 23666A   24025.90373177  .00000000  00000-0 00000000 0 00005
2 00000  90.0000 018.0000 0000011   0.0000 185.0000 20.00000000000008
NODE_1_6
1 00000U 23666A   24025.90373177  .00000000  00000-0 00000000 0 00005
2 00000  90.0000 018.0000 0000011   0.0000 221.0000 20.00000000000009
NODE_1_7
1 00000U 23666A   24025.90373177  .00000000  00000-0 00000000 0 00005
2 00000  90.0000 018.0000 0000011   0.0000 257.0000 20.00000000000008
NODE_1_8
1 00000U 23666A   24025.90373177  .00000000  00000-0 00000000 0 00005
2 00000  90.0000 018.0000 0000011   0.0000 293.0000 20.00000000000008
NODE_1_9
1 00000U 23666A   24025.90373177  .00000000  00000-0 00000000 0 00005
2 00000  90.0000 018.0000 0000011   0.0000 329.0000 20.00000000000008
NODE_2_0
1 00000U 23666A   24025.90373177  .00000000  00000-0 00000000 0 00005
2 00000  90.0000 036.0000 0000011   0.0000  10.0000 20.00000000000005
NODE_2_1
1 00000U 23666A   24025.90373177  .00000000  00000-0 00000000 0 00005
2 00000  90.0000 036.0000 0000011   0.0000  46.0000 20.00000000000004
NODE_2_2
1 00000U 23666A   24025.90373177  .00000000  00000-0 00000000 0 00005
2 00000  90.0000 036.0000 0000011   0.0000  82.0000 20.00000000000004
NODE_2_3
1 00000U 23666A   24025.90373177  .00000000  00000-0 00000000 0 00005
2 00000  90.0000 036.0000 0000011   0.0000 118.0000 20.00000000000004
NODE_2_4
1 00000U 23666A   24025.90373177  .00000000  00000-0 00000000 0 00005
2 00000  90.0000 036.0000 0000011   0.0000 154.0000 20.00000000000004
NODE_2_5
1 00000U 23666A   24025.90373177  .00000000  00000-0 00000000 0 00005
2 00000  90.0000 036.0000 0000011   0.0000 190.0000 20.00000000000004
NODE_2_6
1 00000U 23666A   24025.90373177  .00000000  00000-0 00000000 0 00005
2 00000  90.0000 036.0000 0000011   0.0000 226.0000 20.00000000000004
NODE_2_7
1 00000U 23666A   24025.90373177  .00000000  00000-0 00000000 0 00005
2 00000  90.0000 036.0000 0000011   0.0000 262.0000 20.00000000000004
NODE_2_8
1 00000U 23666A   24025.90373177  .00000000  00000-0 00000000 0 00005
2 00000  90.0000 036.0000 0000011   0.0000 298.0000 20.00000000000003
NODE_2_9
1 00000U 23666A   24025.90373177  .00000000  00000-0 00000000 0 00005
2 00000  90.0000 036.0000 0000011   0.0000 334.0000 20.00000000000004
NODE_3_0
1 00000U 23666A   24025.90373177  .00000000  00000-0 00000000 0 00005
2 00000  90.0000 054.0000 0000011   0.0000  15.0000 20.00000000000000
NODE_3_1
1 00000U 23666A   24025.90373177  .00000000  00000-0 00000000 0 00005
2 00000  90.0000 054.0000 0000011   0.0000  51.0000 20.00000000000000
NODE_3_2
1 00000U 23666A   24025.90373177  .00000000  00000-0 00000000 0 00005
2 00000  90.0000 054.0000 0000011   0.0000  87.0000 20.00000000000009
NODE_3_3
1 00000U 23666A   24025.90373177  .00000000  00000-0 00000000 0 00005
2 00000  90.0000 054.0000 0000011   0.0000 123.0000 20.00000000000000
NODE_3_4
1 00000U 23666A   24025.90373177  .00000000  00000-0 00000000 0 00005
2 00000  90.0000 054.0000 0000011   0.0000 159.0000 20.00000000000009
NODE_3_5
1 00000U 23666A   24025.90373177  .00000000  00000-0 00000000 0 00005
2 00000  90.0000 054.0000 0000011   0.0000 195.0000 20.00000000000009
NODE_3_6
1 00000U 23666A   24025.90373177  .00000000  00000-0 00000000 0 00005
2 00000  90.0000 054.0000 0000011   0.0000 231.0000 20.00000000000000
NODE_3_7
1 00000U 23666A   24025.90373177  .00000000  00000-0 00000000 0 00005
2 00000  90.0000 054.0000 0000011   0.0000 267.0000 20.00000000000009
NODE_3_8
1 00000U 23666A   24025.90373177  .00000000  00000-0 00000000 0 00005
2 00000  90.0000 054.0000 0000011   0.0000 303.0000 20.00000000000000
NODE_3_9
1 00000U 23666A   24025.90373177  .00000000  00000-0 00000000 0 00005
2 00000  90.0000 054.0000 0000011   0.0000 339.0000 20.00000000000009
NODE_4_0
1 00000U 23666A   24025.90373177  .00000000  00000-0 00000000 0 00005
2 00000  90.0000 072.0000 0000011   0.0000  20.0000 20.00000000000006
NODE_4_1
1 00000U 23666A   24025.90373177  .00000000  00000-0 00000000 0 00005
2 00000  90.0000 072.0000 0000011   0.0000  56.0000 20.00000000000005
NODE_4_2
1 00000U 23666A   24025.90373177  .00000000  00000-0 00000000 0 00005
2 00000  90.0000 072.0000 0000011   0.0000  92.0000 20.00000000000005
NODE_4_3
1 00000U 23666A   24025.90373177  .00000000  00000-0 00000000 0 00005
2 00000  90.0000 072.0000 0000011   0.0000 128.0000 20.00000000000005
NODE_4_4
1 00000U 23666A   24025.90373177  .00000000  00000-0 00000000 0 00005
2 00000  90.0000 072.0000 0000011   0.0000 164.0000 20.00000000000005
NODE_4_5
1 00000U 23666A   24025.90373177  .00000000  00000-0 00000000 0 00005
2 00000  90.0000 072.0000 0000011   0.0000 200.0000 20.00000000000006
NODE_4_6
1 00000U 23666A   24025.90373177  .00000000  00000-0 00000000 0 00005
2 00000  90.0000 072.0000 0000011   0.0000 236.0000 20.00000000000005
NODE_4_7
1 00000U 23666A   24025.90373177  .00000000  00000-0 00000000 0 00005
2 00000  90.0000 072.0000 0000011   0.0000 272.0000 20.00000000000005
NODE_4_8
1 00000U 23666A   24025.90373177  .00000000  00000-0 00000000 0 00005
2 00000  90.0000 072.0000 0000011   0.0000 308.0000 20.00000000000005
NODE_4_9
1 00000U 23666A   24025.90373177  .00000000  00000-0 00000000 0 00005
2 00000  90.0000 072.0000 0000011   0.0000 344.0000 20.00000000000005
NODE_5_0
1 00000U 23666A   24025.90373177  .00000000  00000-0 00000000 0 00005
2 00000  90.0000 090.0000 0000011   0.0000  25.0000 20.00000000000001
NODE_5_1
1 00000U 23666A   24025.90373177  .00000000  00000-0 00000000 0 00005
2 00000  90.0000 090.0000 0000011   0.0000  61.0000 20.00000000000001
NODE_5_2
1 00000U 23666A   24025.90373177  .00000000  00000-0 00000000 0 00005
2 00000  90.0000 090.0000 0000011   0.0000  97.0000 20.00000000000000
NODE_5_3
1 00000U 23666A   24025.90373177  .00000000  00000-0 00000000 0 00005
2 00000  90.0000 090.0000 0000011   0.0000 133.0000 20.00000000000001
NODE_5_4
1 00000U 23666A   24025.90373177  .00000000  00000-0 00000000 0 00005
2 00000  90.0000 090.0000 0000011   0.0000 169.0000 20.00000000000000
NODE_5_5
1 00000U 23666A   24025.90373177  .00000000  00000-0 00000000 0 00005
2 00000  90.0000 090.0000 0000011   0.0000 205.0000 20.00000000000001
NODE_5_6
1 00000U 23666A   24025.90373177  .00000000  00000-0 00000000 0 00005
2 00000  90.0000 090.0000 0000011   0.0000 241.0000 20.00000000000001
NODE_5_7
1 00000U 23666A   24025.90373177  .00000000  00000-0 00000000 0 00005
2 00000  90.0000 090.0000 0000011   0.0000 277.0000 20.00000000000000
NODE_5_8
1 00000U 23666A   24025.90373177  .00000000  00000-0 00000000 0 00005
2 00000  90.0000 090.0000 0000011   0.0000 313.0000 20.00000000000001
NODE_5_9
1 00000U 23666A   24025.90373177  .00000000  00000-0 00000000 0 00005
2 00000  90.0000 090.0000 0000011   0.0000 349.0000 20.00000000000000
NODE_6_0
1 00000U 23666A   24025.90373177  .00000000  00000-0 00000000 0 00005
2 00000  90.0000 108.0000 0000011   0.0000  30.0000 20.00000000000007
NODE_6_1
1 00000U 23666A   24025.90373177  .00000000  00000-0 00000000 0 00005
2 00000  90.0000 108.0000 0000011   0.0000  66.0000 20.00000000000006
NODE_6_2
1 00000U 23666A   24025.90373177  .00000000  00000-0 00000000 0 00005
2 00000  90.0000 108.0000 0000011   0.0000 102.0000 20.00000000000007
NODE_6_3
1 00000U 23666A   24025.90373177  .00000000  00000-0 00000000 0 00005
2 00000  90.0000 108.0000 0000011   0.0000 138.0000 20.00000000000006
NODE_6_4
1 00000U 23666A   24025.90373177  .00000000  00000-0 00000000 0 00005
2 00000  90.0000 108.0000 0000011   0.0000 174.0000 20.00000000000006
NODE_6_5
1 00000U 23666A   24025.90373177  .00000000  00000-0 00000000 0 00005
2 00000  90.0000 108.0000 0000011   0.0000 210.0000 20.00000000000007
NODE_6_6
1 00000U 23666A   24025.90373177  .00000000  00000-0 00000000 0 00005
2 00000  90.0000 108.0000 0000011   0.0000 246.0000 20.00000000000006
